{
  "type": "FeatureCollection",
  "features": [
    {
      "type": "Feature",
      "properties": {
        "norad_id": 65731,
        "name": "1998-067XK",
        "group": "stations",
        "lat": 18.08123785054521,
        "lon": -80.87514403002938,
        "alt_km": 368.1891181127103,
        "timestamp": "2025-12-17T07:00:45.633226+00:00",
        "meta_object_name": "1998-067XK",
        "meta_object_id": "1998-067XK",
        "meta_epoch": "2025-12-16T15:02:12.236928",
        "meta_mean_motion": 15.66493016,
        "meta_eccentricity": 0.00047907,
        "meta_inclination": 51.6286,
        "meta_ra_of_asc_node": 117.5003,
        "meta_arg_of_pericenter": 271.0791,
        "meta_mean_anomaly": 88.9655,
        "meta_ephemeris_type": 0,
        "meta_classification_type": "U",
        "meta_norad_cat_id": 65731,
        "meta_element_set_no": 999,
        "meta_rev_at_epoch": 1375,
        "meta_bstar": 0.00081582518,
        "meta_mean_motion_dot": 0.00087181,
        "meta_mean_motion_ddot": 0,
        "tle_line1": "1 65731U 98067XK  25350.62653052  .00087181  00000+0  81583-3 0  9998",
        "tle_line2": "2 65731  51.6286 117.5003 0004790 271.0791  88.9655 15.66493016 13754"
      },
      "geometry": {
        "type": "Point",
        "coordinates": [
          -80.87514403002938,
          18.08123785054521
        ]
      }
    },
    {
      "type": "Feature",
      "properties": {
        "norad_id": 65732,
        "name": "RSP-03",
        "group": "stations",
        "lat": 0.9456199645010515,
        "lon": -67.4395953114524,
        "alt_km": 360.90099864610875,
        "timestamp": "2025-12-17T07:00:45.633237+00:00",
        "meta_object_name": "RSP-03",
        "meta_object_id": "1998-067XL",
        "meta_epoch": "2025-12-16T14:58:29.275680",
        "meta_mean_motion": 15.69615447,
        "meta_eccentricity": 0.00056224,
        "meta_inclination": 51.6264,
        "meta_ra_of_asc_node": 116.7219,
        "meta_arg_of_pericenter": 277.262,
        "meta_mean_anomaly": 82.7738,
        "meta_ephemeris_type": 0,
        "meta_classification_type": "U",
        "meta_norad_cat_id": 65732,
        "meta_element_set_no": 999,
        "meta_rev_at_epoch": 1377,
        "meta_bstar": 0.00094839264,
        "meta_mean_motion_dot": 0.00115729,
        "meta_mean_motion_ddot": 0,
        "tle_line1": "1 65732U 98067XL  25350.62394995  .00115729  00000+0  94839-3 0  9995",
        "tle_line2": "2 65732  51.6264 116.7219 0005622 277.2620  82.7738 15.69615447 13778"
      },
      "geometry": {
        "type": "Point",
        "coordinates": [
          -67.4395953114524,
          0.9456199645010515
        ]
      }
    },
    {
      "type": "Feature",
      "properties": {
        "norad_id": 65733,
        "name": "GHS-01",
        "group": "stations",
        "lat": -19.46118896958652,
        "lon": -51.987629763540745,
        "alt_km": 343.63307875391547,
        "timestamp": "2025-12-17T07:00:45.633248+00:00",
        "meta_object_name": "GHS-01",
        "meta_object_id": "1998-067XM",
        "meta_epoch": "2025-12-16T14:56:03.112800",
        "meta_mean_motion": 15.76521023,
        "meta_eccentricity": 0.00077117,
        "meta_inclination": 51.6275,
        "meta_ra_of_asc_node": 115.2086,
        "meta_arg_of_pericenter": 306.7949,
        "meta_mean_anomaly": 53.2342,
        "meta_ephemeris_type": 0,
        "meta_classification_type": "U",
        "meta_norad_cat_id": 65733,
        "meta_element_set_no": 999,
        "meta_rev_at_epoch": 1379,
        "meta_bstar": 0.0012704377,
        "meta_mean_motion_dot": 0.00211236,
        "meta_mean_motion_ddot": 0,
        "tle_line1": "1 65733U 98067XM  25350.62225825  .00211236  00000+0  12704-2 0  9991",
        "tle_line2": "2 65733  51.6275 115.2086 0007711 306.7949  53.2342 15.76521023 13790"
      },
      "geometry": {
        "type": "Point",
        "coordinates": [
          -51.987629763540745,
          -19.46118896958652
        ]
      }
    },
    {
      "type": "Feature",
      "properties": {
        "norad_id": 65941,
        "name": "YOTSUBA-KULOVER",
        "group": "stations",
        "lat": 5.949178600741762,
        "lon": -67.65315442000369,
        "alt_km": 387.9340320583624,
        "timestamp": "2025-12-17T07:00:45.633259+00:00",
        "meta_object_name": "YOTSUBA-KULOVER",
        "meta_object_id": "1998-067XN",
        "meta_epoch": "2025-12-16T14:54:10.853280",
        "meta_mean_motion": 15.59985033,
        "meta_eccentricity": 0.00014592,
        "meta_inclination": 51.6282,
        "meta_ra_of_asc_node": 120.4613,
        "meta_arg_of_pericenter": 292.17,
        "meta_mean_anomaly": 67.9139,
        "meta_ephemeris_type": 0,
        "meta_classification_type": "U",
        "meta_norad_cat_id": 65941,
        "meta_element_set_no": 999,
        "meta_rev_at_epoch": 1046,
        "meta_bstar": 0.00069919558,
        "meta_mean_motion_dot": 0.00057497,
        "meta_mean_motion_ddot": 0,
        "tle_line1": "1 65941U 98067XN  25350.62095895  .00057497  00000+0  69920-3 0  9994",
        "tle_line2": "2 65941  51.6282 120.4613 0001459 292.1700  67.9139 15.59985033 10462"
      },
      "geometry": {
        "type": "Point",
        "coordinates": [
          -67.65315442000369,
          5.949178600741762
        ]
      }
    },
    {
      "type": "Feature",
      "properties": {
        "norad_id": 65942,
        "name": "BOTAN",
        "group": "stations",
        "lat": -15.600250885816276,
        "lon": -50.94275049877614,
        "alt_km": 378.60727954260346,
        "timestamp": "2025-12-17T07:00:45.633270+00:00",
        "meta_object_name": "BOTAN",
        "meta_object_id": "1998-067XP",
        "meta_epoch": "2025-12-16T14:49:24.708576",
        "meta_mean_motion": 15.63698915,
        "meta_eccentricity": 0.00028624,
        "meta_inclination": 51.628,
        "meta_ra_of_asc_node": 119.6894,
        "meta_arg_of_pericenter": 271.2496,
        "meta_mean_anomaly": 88.817,
        "meta_ephemeris_type": 0,
        "meta_classification_type": "U",
        "meta_norad_cat_id": 65942,
        "meta_element_set_no": 999,
        "meta_rev_at_epoch": 1047,
        "meta_bstar": 0.00096273878,
        "meta_mean_motion_dot": 0.00092119,
        "meta_mean_motion_ddot": 0,
        "tle_line1": "1 65942U 98067XP  25350.61764709  .00092119  00000+0  96274-3 0  9993",
        "tle_line2": "2 65942  51.6280 119.6894 0002862 271.2496  88.8170 15.63698915 10474"
      },
      "geometry": {
        "type": "Point",
        "coordinates": [
          -50.94275049877614,
          -15.600250885816276
        ]
      }
    },
    {
      "type": "Feature",
      "properties": {
        "norad_id": 65943,
        "name": "E-KAGAKU-1",
        "group": "stations",
        "lat": 6.447687877273804,
        "lon": -68.0509228494919,
        "alt_km": 386.84761942048044,
        "timestamp": "2025-12-17T07:00:45.633281+00:00",
        "meta_object_name": "E-KAGAKU-1",
        "meta_object_id": "1998-067XQ",
        "meta_epoch": "2025-12-15T15:50:32.577792",
        "meta_mean_motion": 15.59851021,
        "meta_eccentricity": 0.00016366,
        "meta_inclination": 51.6292,
        "meta_ra_of_asc_node": 125.299,
        "meta_arg_of_pericenter": 221.4661,
        "meta_mean_anomaly": 138.6208,
        "meta_ephemeris_type": 0,
        "meta_classification_type": "U",
        "meta_norad_cat_id": 65943,
        "meta_element_set_no": 999,
        "meta_rev_at_epoch": 1031,
        "meta_bstar": 0.0006409113,
        "meta_mean_motion_dot": 0.00052357,
        "meta_mean_motion_ddot": 0,
        "tle_line1": "1 65943U 98067XQ  25349.66009928  .00052357  00000+0  64091-3 0  9994",
        "tle_line2": "2 65943  51.6292 125.2990 0001636 221.4661 138.6208 15.59851021 10310"
      },
      "geometry": {
        "type": "Point",
        "coordinates": [
          -68.0509228494919,
          6.447687877273804
        ]
      }
    },
    {
      "type": "Feature",
      "properties": {
        "norad_id": 66052,
        "name": "HRC MONOBLOCK CAMERA",
        "group": "stations",
        "lat": 45.79444118549322,
        "lon": 173.34965467035877,
        "alt_km": 398.86491932970057,
        "timestamp": "2025-12-17T07:00:45.633295+00:00",
        "meta_object_name": "HRC MONOBLOCK CAMERA",
        "meta_object_id": "1998-067XR",
        "meta_epoch": "2025-12-16T16:50:34.259424",
        "meta_mean_motion": 15.54421487,
        "meta_eccentricity": 0.00028317,
        "meta_inclination": 51.6291,
        "meta_ra_of_asc_node": 121.7469,
        "meta_arg_of_pericenter": 202.0101,
        "meta_mean_anomaly": 158.0768,
        "meta_ephemeris_type": 0,
        "meta_classification_type": "U",
        "meta_norad_cat_id": 66052,
        "meta_element_set_no": 999,
        "meta_rev_at_epoch": 945,
        "meta_bstar": 0.00049497455,
        "meta_mean_motion_dot": 0.00032777,
        "meta_mean_motion_ddot": 0,
        "tle_line1": "1 66052U 98067XR  25350.70178541  .00032777  00000+0  49497-3 0  9998",
        "tle_line2": "2 66052  51.6291 121.7469 0002831 202.0101 158.0768 15.54421487  9459"
      },
      "geometry": {
        "type": "Point",
        "coordinates": [
          173.34965467035877,
          45.79444118549322
        ]
      }
    }
  ]
}